IRIDIUM 8 [+]           
1 24792U 97020A   09190.23841898  .00000190  00000-0  60661-4 0  6758
2 24792  86.3961  90.7393 0002387  78.2603 281.8861 14.34218561637540
IRIDIUM 7 [+]           
1 24793U 97020B   09190.23207300  .00000166  00000-0  52250-4 0  6773
2 24793  86.3957  90.8759 0002438  80.5819 279.5654 14.34218802637547
IRIDIUM 6 [+]           
1 24794U 97020C   09190.57457331  .00000158  00000-0  49370-4 0  4747
2 24794  86.3961  90.7201 0002671  74.6567 285.4924 14.34218985637590
IRIDIUM 5 [+]           
1 24795U 97020D   09190.21939360  .00000158  00000-0  49176-4 0  8137
2 24795  86.3952  91.0255 0003194  56.9482 303.2021 14.34218712637623
IRIDIUM 4 [+]           
1 24796U 97020E   09190.38429237  .00000199  00000-0  64000-4 0  6959
2 24796  86.3960  90.5796 0002475  80.1153 280.0322 14.34219247637587
IRIDIUM 914 [-]         
1 24836U 97030A   09190.88889778  .00000048  00000-0  92367-5 0  2575
2 24836  86.3943 114.7278 0000905  56.1139 304.0143 14.37430889632280
IRIDIUM 12 [+]          
1 24837U 97030B   09190.37508239  .00000116  00000-0  34250-4 0  6958
2 24837  86.3987 122.1452 0002462  77.2434 282.9037 14.34216584631318
IRIDIUM 10 [+]          
1 24839U 97030D   09190.36236227 -.00000008  00000-0 -99729-5 0  6915
2 24839  86.3985 122.1478 0002451  79.8612 280.2858 14.34217369631325
IRIDIUM 13 [+]          
1 24840U 97030E   09190.31162230  .00000161  00000-0  50579-4 0  6517
2 24840  86.3986 122.2440 0002518  81.1185 279.0289 14.34216595631305
IRIDIUM 16 [-]          
1 24841U 97030F   09190.34254080  .00000153  00000-0  46697-4 0  6771
2 24841  86.4055 122.7722 0004293  66.6560 293.5087 14.35288813631455
IRIDIUM 911 [-]         
1 24842U 97030G   09190.34622168  .00000054  00000-0  10195-4 0  3421
2 24842  86.4477 124.9683 0015260 355.8750   4.2329 14.43176021634482
IRIDIUM 15 [+]          
1 24869U 97034A   09190.44192917  .00000136  00000-0  41377-4 0  7149
2 24869  86.3994 153.7468 0002463  75.2141 284.9324 14.34214304628294
IRIDIUM 17 [-]          
1 24870U 97034B   09190.31624482  .00000087  00000-0  23878-4 0  6896
2 24870  86.3981 153.6978 0002650  73.3033 286.8461 14.34438156628290
IRIDIUM 920 [-]         
1 24871U 97034C   09190.89764437  .00000040  00000-0  66423-5 0  2805
2 24871  86.4006 146.5296 0013142 136.9427 223.2801 14.38067527629495
IRIDIUM 18 [+]          
1 24872U 97034D   09190.47363368  .00000087  00000-0  23988-4 0  6799
2 24872  86.3996 153.8763 0002686  80.4427 279.7072 14.34214266628290
IRIDIUM 921 [-]         
1 24873U 97034E   09190.86536105  .00000367  00000-0  29032-4 0  6173
2 24873  86.3864 340.5627 0011190  96.9873 263.2625 14.97167498652603
IRIDIUM 26 [+]          
1 24903U 97043A   09190.59937863 -.00000051  00000-0 -25224-4 0  7894
2 24903  86.3940  27.4018 0002390  78.8620 281.2837 14.34218367622254
IRIDIUM 25 [+]          
1 24904U 97043B   09190.63109205 -.00000031  00000-0 -18111-4 0  6806
2 24904  86.3929  27.3367 0002366  78.3039 281.8421 14.34218395622223
IRIDIUM 46 [+]          
1 24905U 97043C   09190.57400475 -.00000033  00000-0 -18888-4 0  6974
2 24905  86.3940  27.6441 0002384  80.6316 279.5146 14.34218712622228
IRIDIUM 23 [+]          
1 24906U 97043D   09190.61841002 -.00000029  00000-0 -17576-4 0  6973
2 24906  86.3922  27.2760 0002385  83.6227 276.5237 14.34218259622239
IRIDIUM 22 [+]          
1 24907U 97043E   09190.61205714 -.00000051  00000-0 -25192-4 0  6684
2 24907  86.3951  27.6760 0002368  80.4629 279.6829 14.34218713622234
DUMMY MASS 1 [-]        
1 24925U 97048A   09190.85900380  .00000011  00000-0 -20131-5 0  2552
2 24925  86.3349 298.4712 0006044 180.2829 179.8412 14.83829075641497
DUMMY MASS 2 [-]        
1 24926U 97048B   09190.39086702  .00000003  00000-0 -30023-5 0  2489
2 24926  86.3347 299.3368 0006519 189.9083 170.2012 14.83609942641331
IRIDIUM 29 [+]          
1 24944U 97051A   09190.62188895  .00000129  00000-0  38966-4 0  6468
2 24944  86.3935  58.9781 0002348  79.6584 280.4879 14.34218423618806
IRIDIUM 32 [+]          
1 24945U 97051B   09190.64091718  .00000134  00000-0  40825-4 0  6494
2 24945  86.3935  58.9840 0002297  78.5974 281.5468 14.34218359618823
IRIDIUM 33 [-]          
1 24946U 97051C   09190.54885505  .00000062  00000-0  15764-4 0  7427
2 24946  86.3847  59.0754 0007559 337.7503  22.3365 14.32482374618797
IRIDIUM 28 [-]          
1 24948U 97051E   09190.61010700  .00000117  00000-0  34626-4 0  5128
2 24948  86.3929  59.1402 0002626  67.4135 292.7342 14.34262600618797
IRIDIUM 30 [+]          
1 24949U 97051F   09190.63457305  .00000165  00000-0  52017-4 0  6912
2 24949  86.3938  59.0403 0002415  80.4619 279.6844 14.34218691618800
IRIDIUM 31 [+]          
1 24950U 97051G   09190.62823175  .00000186  00000-0  59207-4 0  6725
2 24950  86.3941  59.0354 0002449  82.9809 277.1666 14.34218648618814
IRIDIUM 19 [+]          
1 24965U 97056A   09190.33355511  .00000132  00000-0  40172-4 0  6517
2 24965  86.3952  90.6763 0002371  80.9197 279.2267 14.34218782616917
IRIDIUM 35 [+]          
1 24966U 97056B   09190.62532033  .00000230  00000-0  75222-4 0  6968
2 24966  86.3964  90.5783 0002441  76.1358 284.0111 14.34218753616938
IRIDIUM 36 [-]          
1 24967U 97056C   09190.25764186 -.00000041  00000-0 -21519-4 0  6270
2 24967  86.3960  90.7990 0002433  78.6148 281.5318 14.34294004617027
IRIDIUM 37 [+]          
1 24968U 97056D   09190.59993916  .00000105  00000-0  30588-4 0  6616
2 24968  86.3961  90.6885 0002387  75.0995 285.0461 14.34218986616932
IRIDIUM 34 [+]          
1 24969U 97056E   09190.61897338  .00000161  00000-0  50320-4 0  6484
2 24969  86.3965  90.6256 0002397  76.4438 283.7026 14.34218776616936
IRIDIUM 43 [+]          
1 25039U 97069A   09190.46727751  .00000061  00000-0  14832-4 0  6466
2 25039  86.4000 153.8983 0002469  78.7504 281.3968 14.34214894610697
IRIDIUM 41 [+]          
1 25040U 97069B   09190.46096077  .00000055  00000-0  12603-4 0  6386
2 25040  86.3989 153.8107 0002470  77.1115 283.0356 14.34214249610699
IRIDIUM 40 [+]          
1 25041U 97069C   09190.41655749  .00000077  00000-0  20606-4 0  6644
2 25041  86.3995 153.7971 0002474  78.9464 281.2002 14.34214449610707
IRIDIUM 39 [+]          
1 25042U 97069D   09190.49265088  .00000211  00000-0  68344-4 0  6377
2 25042  86.3995 153.9243 0002707  75.8044 284.3451 14.34213979610698
IRIDIUM 38 [-]          
1 25043U 97069E   09190.41568421 -.00000003  00000-0 -79534-5 0  6631
2 25043  86.3993 153.2032 0003272  68.9922 291.1615 14.34701810610797
IRIDIUM 42 [+]          
1 25077U 97077A   09190.41021113  .00000109  00000-0  32014-4 0  6512
2 25077  86.3997 153.8759 0002385  77.4402 282.7060 14.34214807606545
IRIDIUM 44 [-]          
1 25078U 97077B   09190.42665005  .00000077  00000-0  19495-4 0  1559
2 25078  86.3981 149.3583 0004053  65.3193 294.8427 14.36556325607123
IRIDIUM 45 [+]          
1 25104U 97082A   09190.63743285 -.00000053  00000-0 -26159-4 0  5965
2 25104  86.3922  27.3574 0002384  81.0674 279.0790 14.34218494604773
IRIDIUM 24 [-]          
1 25105U 97082B   09190.46161988  .00000114  00000-0  30756-4 0  2096
2 25105  86.3896  18.0171 0012239 144.4457 215.7566 14.38268505605857
IRIDIUM 47 [+]          
1 25106U 97082C   09190.58034848 -.00000014  00000-0 -11948-4 0  5911
2 25106  86.3928  27.3232 0002372  78.7734 281.3723 14.34218678604764
IRIDIUM 49 [+]          
1 25108U 97082E   09190.59304135 -.00000083  00000-0 -36728-4 0  6069
2 25108  86.3939  27.3398 0002380  79.0147 281.1307 14.34218129604770
IRIDIUM 52 [+]          
1 25169U 98010A   09190.34333364 -.00000117  00000-0 -49008-4 0  3900
2 25169  86.3994 122.3189 0002459  81.5655 278.5814 14.34216887596144
IRIDIUM 56 [+]          
1 25170U 98010B   09190.40676264  .00000112  00000-0  33077-4 0  4327
2 25170  86.3983 122.3386 0002445  76.9435 283.2035 14.34216181596136
IRIDIUM 54 [+]          
1 25171U 98010C   09190.36870579  .00000160  00000-0  50046-4 0  6171
2 25171  86.3991 122.3123 0002435  80.0875 280.0595 14.34216554596295
IRIDIUM 50 [+]          
1 25172U 98010D   09190.33065152  .00000110  00000-0  32151-4 0  6400
2 25172  86.3986 122.2991 0002488  79.6137 280.5338 14.34216200596125
IRIDIUM 53 [+]          
1 25173U 98010E   09190.34967939  .00000185  00000-0  59124-4 0  6249
2 25173  86.3989 122.3008 0002427  80.1056 280.0409 14.34216512596130
IRIDIUM 51 [S]          
1 25262U 98018A   09190.31976406  .00000185  00000-0  49482-4 0  7351
2 25262  86.4475  90.8579 0002518  77.3400 282.8081 14.42951657594560
IRIDIUM 61 [+]          
1 25263U 98018B   09190.32721130  .00000158  00000-0  49504-4 0  5820
2 25263  86.3965  90.7793 0002417  78.8897 281.2570 14.34218882591228
IRIDIUM 55 [+]          
1 25272U 98019A   09190.60921164  .00000096  00000-0  34227-4 0  5828
2 25272  86.3932  58.9258 0002338  73.7899 286.4043 14.34218702590460
IRIDIUM 57 [+]          
1 25273U 98019B   09190.58383298  .00000237  00000-0  77455-4 0  6138
2 25273  86.3945  59.1190 0002385  80.1290 280.0185 14.34218877590462
IRIDIUM 58 [+]          
1 25274U 98019C   09190.59017527  .00000220  00000-0  71588-4 0  4231
2 25274  86.3944  59.2273 0002432  78.8800 281.2676 14.34218847590464
IRIDIUM 59 [+]          
1 25275U 98019D   09190.59652014  .00000049  00000-0  10419-4 0  2679
2 25275  86.3944  59.2343 0002424  60.1173 300.0280 14.34217542590463
IRIDIUM 60 [+]          
1 25276U 98019E   09190.60286225  .00000107  00000-0  31258-4 0  6481
2 25276  86.3925  58.9639 0002356  76.3214 283.8251 14.34218032590467
IRIDIUM 62 [+]          
1 25285U 98021A   09190.56432817 -.00000075  00000-0 -33796-4 0  6057
2 25285  86.3951 355.8030 0002293  77.8699 282.2752 14.34211414589412
IRIDIUM 63 [+]          
1 25286U 98021B   09190.50090155 -.00000070  00000-0 -32207-4 0  6193
2 25286  86.3953 355.9155 0002354  79.1006 281.0453 14.34211403589401
